{"fetched_at":"2026-03-29T16:36:15Z","count":15609,"tles":[{"name":"STARLINK-36096","line1":"1 66949U 25286AA  26087.91616376  .00014095  00000+0  48694-3 0  9991","line2":"2 66949  53.1580 268.9140 0000839  88.7759 271.3337 15.30210734 18362","category":"Starlink"}]}